QIANFAN-89              
1 63175U 25046S   25212.22695401  .00000155  00000+0  22159-3 0  9992
2 63175  88.9859 333.8953 0017836 149.8205 210.3978 13.50962704 29243
QIANFAN-90              
1 63176U 25046T   25211.88541432  .00000170  00000+0  24529-3 0  9998
2 63176  88.9859 333.9024 0014801 148.1251 212.0799 13.50961151 29218
